{"type": "FeatureCollection", "features": [ {"type": "Feature", "properties": {"norad_id": 66945, "name": "STARLINK-36110", "group": "last-30-days", "lat": -13.554566081706637, "lon": 3.7451035403291413, "alt_km": 338.0860984539995, "timestamp": "2025-12-19T22:41:51.098642+00:00", "meta": {"OBJECT_NAME": "STARLINK-36110", "OBJECT_ID": "2025-286W", "EPOCH": "2025-12-19T18:00:00.998784", "MEAN_MOTION": 15.78890745, "ECCENTRICITY": 6.53e-05, "INCLINATION": 53.1546, "RA_OF_ASC_NODE": 15.1386, "ARG_OF_PERICENTER": 82.7843, "MEAN_ANOMALY": 227.4144, "EPHEMERIS_TYPE": 0, "CLASSIFICATION_TYPE": "U", "NORAD_CAT_ID": 66945, "ELEMENT_SET_NO": 999, "REV_AT_EPOCH": 311, "BSTAR": -0.0098025, "MEAN_MOTION_DOT": -0.0155012, "MEAN_MOTION_DDOT": 0}, "tle": {"line1": "1 66945U 25286W   25353.75001156 -.01550120  00000+0 -98025-2 0  9997", "line2": "2 66945  53.1546  15.1386 0000653  82.7843 227.4144 15.78890745  3119"}}, "geometry": {"type": "Point", "coordinates": [3.7451035403291413, -13.554566081706637]}}, {"type": "Feature", "properties": {"norad_id": 66946, "name": "STARLINK-36115", "group": "last-30-days", "lat": -11.899865480154848, "lon": 5.064237141362065, "alt_km": 337.9733846114241, "timestamp": "2025-12-19T22:41:51.098653+00:00", "meta": {"OBJECT_NAME": "STARLINK-36115", "OBJECT_ID": "2025-286X", "EPOCH": "2025-12-19T18:00:00.998784", "MEAN_MOTION": 15.78862871, "ECCENTRICITY": 7.17e-05, "INCLINATION": 53.1546, "RA_OF_ASC_NODE": 15.1343, "ARG_OF_PERICENTER": 79.9314, "MEAN_ANOMALY": 232.3886, "EPHEMERIS_TYPE": 0, "CLASSIFICATION_TYPE": "U", "NORAD_CAT_ID": 66946, "ELEMENT_SET_NO": 999, "REV_AT_EPOCH": 311, "BSTAR": -0.0098702, "MEAN_MOTION_DOT": -0.01557776, "MEAN_MOTION_DDOT": 0}, "tle": {"line1": "1 66946U 25286X   25353.75001156 -.01557776  00000+0 -98702-2 0  9994", "line2": "2 66946  53.1546  15.1343 0000717  79.9314 232.3886 15.78862871  3112"}}, "geometry": {"type": "Point", "coordinates": [5.064237141362065, -11.899865480154848]}}, {"type": "Feature", "properties": {"norad_id": 66947, "name": "STARLINK-36089", "group": "last-30-days", "lat": -8.48928582644306, "lon": 7.720923345666178, "alt_km": 337.77821714899983, "timestamp": "2025-12-19T22:41:51.098663+00:00", "meta": {"OBJECT_NAME": "STARLINK-36089", "OBJECT_ID": "2025-286Y", "EPOCH": "2025-12-19T18:00:00.998784", "MEAN_MOTION": 15.78783587, "ECCENTRICITY": 9.54e-05, "INCLINATION": 53.1547, "RA_OF_ASC_NODE": 15.1251, "ARG_OF_PERICENTER": 76.5081, "MEAN_ANOMALY": 240.1773, "EPHEMERIS_TYPE": 0, "CLASSIFICATION_TYPE": "U", "NORAD_CAT_ID": 66947, "ELEMENT_SET_NO": 999, "REV_AT_EPOCH": 311, "BSTAR": -0.010018, "MEAN_MOTION_DOT": -0.01573259, "MEAN_MOTION_DDOT": 0}, "tle": {"line1": "1 66947U 25286Y   25353.75001156 -.01573259  00000+0 -10018-1 0  9992", "line2": "2 66947  53.1547  15.1251 0000954  76.5081 240.1773 15.78783587  3117"}}, "geometry": {"type": "Point", "coordinates": [7.720923345666178, -8.48928582644306]}}, {"type": "Feature", "properties": {"norad_id": 66948, "name": "STARLINK-36116", "group": "last-30-days", "lat": -10.098941028819539, "lon": 6.4762690102772185, "alt_km": 337.9657239823755, "timestamp": "2025-12-19T22:41:51.098673+00:00", "meta": {"OBJECT_NAME": "STARLINK-36116", "OBJECT_ID": "2025-286Z", "EPOCH": "2025-12-19T18:00:00.998784", "MEAN_MOTION": 15.78798558, "ECCENTRICITY": 7.61e-05, "INCLINATION": 53.1547, "RA_OF_ASC_NODE": 15.1294, "ARG_OF_PERICENTER": 80.6773, "MEAN_ANOMALY": 233.9663, "EPHEMERIS_TYPE": 0, "CLASSIFICATION_TYPE": "U", "NORAD_CAT_ID": 66948, "ELEMENT_SET_NO": 999, "REV_AT_EPOCH": 311, "BSTAR": -0.0099651, "MEAN_MOTION_DOT": -0.01566852, "MEAN_MOTION_DDOT": 0}, "tle": {"line1": "1 66948U 25286Z   25353.75001156 -.01566852  00000+0 -99651-2 0  9995", "line2": "2 66948  53.1547  15.1294 0000761  80.6773 233.9663 15.78798558  3117"}}, "geometry": {"type": "Point", "coordinates": [6.4762690102772185, -10.098941028819539]}}, {"type": "Feature", "properties": {"norad_id": 66949, "name": "STARLINK-36096", "group": "last-30-days", "lat": -6.858140340561124, "lon": 8.968761345695487, "alt_km": 337.642782654455, "timestamp": "2025-12-19T22:41:51.098685+00:00", "meta": {"OBJECT_NAME": "STARLINK-36096", "OBJECT_ID": "2025-286AA", "EPOCH": "2025-12-19T18:00:00.998784", "MEAN_MOTION": 15.7876706, "ECCENTRICITY": 7.21e-05, "INCLINATION": 53.1548, "RA_OF_ASC_NODE": 15.121, "ARG_OF_PERICENTER": 77.1028, "MEAN_ANOMALY": 241.6425, "EPHEMERIS_TYPE": 0, "CLASSIFICATION_TYPE": "U", "NORAD_CAT_ID": 66949, "ELEMENT_SET_NO": 999, "REV_AT_EPOCH": 311, "BSTAR": -0.010078, "MEAN_MOTION_DOT": -0.01580318, "MEAN_MOTION_DDOT": 0}, "tle": {"line1": "1 66949U 25286AA  25353.75001156 -.01580318  00000+0 -10078-1 0  9994", "line2": "2 66949  53.1548  15.1210 0000721  77.1028 241.6425 15.78767060  3113"}}, "geometry": {"type": "Point", "coordinates": [8.968761345695487, -6.858140340561124]}}, {"type": "Feature", "properties": {"norad_id": 66950, "name": "STARLINK-36111", "group": "last-30-days", "lat": -3.5319274621726504, "lon": 11.48185311424038, "alt_km": 337.33292019597957, "timestamp": "2025-12-19T22:41:51.098695+00:00", "meta": {"OBJECT_NAME": "STARLINK-36111", "OBJECT_ID": "2025-286AB", "EPOCH": "2025-12-19T18:00:00.998784", "MEAN_MOTION": 15.78713322, "ECCENTRICITY": 9.27e-05, "INCLINATION": 53.1551, "RA_OF_ASC_NODE": 15.1123, "ARG_OF_PERICENTER": 74.5869, "MEAN_ANOMALY": 248.3689, "EPHEMERIS_TYPE": 0, "CLASSIFICATION_TYPE": "U", "NORAD_CAT_ID": 66950, "ELEMENT_SET_NO": 999, "REV_AT_EPOCH": 311, "BSTAR": -0.010203, "MEAN_MOTION_DOT": -0.01594052, "MEAN_MOTION_DDOT": 0}, "tle": {"line1": "1 66950U 25286AB  25353.75001156 -.01594052  00000+0 -10203-1 0  9996", "line2": "2 66950  53.1551  15.1123 0000927  74.5869 248.3689 15.78713322  3112"}}, "geometry": {"type": "Point", "coordinates": [11.48185311424038, -3.5319274621726504]}}, {"type": "Feature", "properties": {"norad_id": 66951, "name": "STARLINK-35999", "group": "last-30-days", "lat": -1.8265019259033366, "lon": 12.75995043406029, "alt_km": 337.213966544462, "timestamp": "2025-12-19T22:41:51.098705+00:00", "meta": {"OBJECT_NAME": "STARLINK-35999", "OBJECT_ID": "2025-286AC", "EPOCH": "2025-12-19T18:00:00.998784", "MEAN_MOTION": 15.7867721, "ECCENTRICITY": 9.98e-05, "INCLINATION": 53.1549, "RA_OF_ASC_NODE": 15.1078, "ARG_OF_PERICENTER": 75.7454, "MEAN_ANOMALY": 249.3711, "EPHEMERIS_TYPE": 0, "CLASSIFICATION_TYPE": "U", "NORAD_CAT_ID": 66951, "ELEMENT_SET_NO": 999, "REV_AT_EPOCH": 311, "BSTAR": -0.010284, "MEAN_MOTION_DOT": -0.01602884, "MEAN_MOTION_DDOT": 0}, "tle": {"line1": "1 66951U 25286AC  25353.75001156 -.01602884  00000+0 -10284-1 0  9999", "line2": "2 66951  53.1549  15.1078 0000998  75.7454 249.3711 15.78677210  3112"}}, "geometry": {"type": "Point", "coordinates": [12.75995043406029, -1.8265019259033366]}}, {"type": "Feature", "properties": {"norad_id": 66952, "name": "STARLINK-36122", "group": "last-30-days", "lat": -5.183783156016012, "lon": 10.238298064741608, "alt_km": 337.50507642350567, "timestamp": "2025-12-19T22:41:51.098715+00:00", "meta": {"OBJECT_NAME": "STARLINK-36122", "OBJECT_ID": "2025-286AD", "EPOCH": "2025-12-19T18:00:00.998784", "MEAN_MOTION": 15.78736083, "ECCENTRICITY": 9.9e-05, "INCLINATION": 53.1551, "RA_OF_ASC_NODE": 15.1168, "ARG_OF_PERICENTER": 76.9938, "MEAN_ANOMALY": 243.8774, "EPHEMERIS_TYPE": 0, "CLASSIFICATION_TYPE": "U", "NORAD_CAT_ID": 66952, "ELEMENT_SET_NO": 999, "REV_AT_EPOCH": 311, "BSTAR": -0.010144, "MEAN_MOTION_DOT": -0.01587481, "MEAN_MOTION_DDOT": 0}, "tle": {"line1": "1 66952U 25286AD  25353.75001156 -.01587481  00000+0 -10144-1 0  9990", "line2": "2 66952  53.1551  15.1168 0000990  76.9938 243.8774 15.78736083  3110"}}, "geometry": {"type": "Point", "coordinates": [10.238298064741608, -5.183783156016012]}}, {"type": "Feature", "properties": {"norad_id": 66953, "name": "HULIANWANG DIGUI-114", "group": "last-30-days", "lat": 22.553729130274828, "lon": -15.013912016740136, "alt_km": 1014.6263015731711, "timestamp": "2025-12-19T22:41:51.098727+00:00", "meta": {"OBJECT_NAME": "HULIANWANG DIGUI-114", "OBJECT_ID": "2025-287A", "EPOCH": "2025-12-18T14:58:33.375360", "MEAN_MOTION": 13.67416524, "ECCENTRICITY": 0.00087038, "INCLINATION": 86.4968, "RA_OF_ASC_NODE": 344.0089, "ARG_OF_PERICENTER": 188.5983, "MEAN_ANOMALY": 171.5028, "EPHEMERIS_TYPE": 0, "CLASSIFICATION_TYPE": "U", "NORAD_CAT_ID": 66953, "ELEMENT_SET_NO": 999, "REV_AT_EPOCH": 133, "BSTAR": 1.0869035e-05, "MEAN_MOTION_DOT": 2.6e-07, "MEAN_MOTION_DDOT": 0}, "tle": {"line1": "1 66953U 25287A   25352.62399740  .00000026  00000+0  10869-4 0  9995", "line2": "2 66953  86.4968 344.0089 0008703 188.5983 171.5028 13.67416524  1330"}}, "geometry": {"type": "Point", "coordinates": [-15.013912016740136, 22.553729130274828]}}, {"type": "Feature", "properties": {"norad_id": 66954, "name": "HULIANWANG DIGUI-115", "group": "last-30-days", "lat": 26.70950121114276, "lon": -14.701423092927035, "alt_km": 1013.4758371754142, "timestamp": "2025-12-19T22:41:51.098738+00:00", "meta": {"OBJECT_NAME": "HULIANWANG DIGUI-115", "OBJECT_ID": "2025-287B", "EPOCH": "2025-12-18T14:57:30.566880", "MEAN_MOTION": 13.67541232, "ECCENTRICITY": 0.00089471, "INCLINATION": 86.4978, "RA_OF_ASC_NODE": 344.0137, "ARG_OF_PERICENTER": 187.4507, "MEAN_ANOMALY": 172.652, "EPHEMERIS_TYPE": 0, "CLASSIFICATION_TYPE": "U", "NORAD_CAT_ID": 66954, "ELEMENT_SET_NO": 999, "REV_AT_EPOCH": 133, "BSTAR": 1.0944943e-05, "MEAN_MOTION_DOT": 2.6e-07, "MEAN_MOTION_DDOT": 0}, "tle": {"line1": "1 66954U 25287B   25352.62327045  .00000026  00000+0  10945-4 0  9990", "line2": "2 66954  86.4978 344.0137 0008947 187.4507 172.6520 13.67541232  1330"}}, "geometry": {"type": "Point", "coordinates": [-14.701423092927035, 26.70950121114276]}}]}